NORAD_CAT_ID,OBJECT_NAME,OBJECT_TYPE,EPOCH,MEAN_MOTION,ECCENTRICITY,INCLINATION,RA_OF_ASC_NODE,ARG_OF_PERICENTER,MEAN_ANOMALY,BSTAR,MEAN_MOTION_DOT,MEAN_MOTION_DDOT,TLE_LINE0,TLE_LINE1,TLE_LINE2,SEMIMAJOR_AXIS,PERIOD,APOGEE,PERIGEE,DECAYED
53588.0,STARLINK-4691,PAYLOAD,2024-05-02 11:02:37,15.0885167,0.000138,53.2181,40.0824,74.7372,285.3773,0.00013879,1.922e-05,0.0,0 STARLINK-4691,1 53588U 22104A   24123.46015987  .00001922  00000-0  13879-3 0  9995,2 53588  53.2181  40.0824 0001380  74.7372 285.3773 15.08851670 92839,6917.845,95.437,540.664,538.755,0.0
53588.0,STARLINK-4691,PAYLOAD,2024-05-03 01:21:06,15.0884379,0.0001271,53.2175,37.4062,83.7636,276.3501,8.7044e-05,1.098e-05,0.0,0 STARLINK-4691,1 53588U 22104A   24124.05632605  .00001098  00000-0  87044-4 0  9993,2 53588  53.2175  37.4062 0001271  83.7636 276.3501 15.08843790 92921,6917.869,95.437,540.613,538.855,0.0
53588.0,STARLINK-4691,PAYLOAD,2024-05-03 10:53:24,15.08860147,0.0001314,53.2182,35.6202,85.6216,274.4926,0.00021293,3.104e-05,0.0,0 STARLINK-4691,1 53588U 22104A   24124.45375061  .00003104  00000-0  21293-3 0  9990,2 53588  53.2182  35.6202 0001314  85.6216 274.4926 15.08860147 92989,6917.819,95.436,540.593,538.775,0.0
53588.0,STARLINK-4691,PAYLOAD,2024-05-03 18:50:21,15.08817198,0.0001544,53.2168,34.1339,102.9276,257.1889,-0.00032916,-5.519e-05,0.0,0 STARLINK-4691,1 53588U 22104A   24124.78497654 -.00005519  00000-0 -32916-3 0  9997,2 53588  53.2168  34.1339 0001544 102.9276 257.1889 15.08817198 93033,6917.95,95.439,540.883,538.747,0.0
53588.0,STARLINK-4691,PAYLOAD,2024-05-03 22:01:08,15.08817379,0.0001396,53.2167,33.541,105.8834,254.2312,-0.00031144,-5.238e-05,0.0,0 STARLINK-4691,1 53588U 22104A   24124.91745658 -.00005238  00000-0 -31144-3 0  9992,2 53588  53.2167  33.5410 0001396 105.8834 254.2312 15.08817379 94224,6917.95,95.439,540.78,538.849,0.0
53588.0,STARLINK-4691,PAYLOAD,2024-05-04 10:44:13,15.08828254,0.00014,53.218,31.1619,97.6798,262.4353,-0.00012228,-2.233e-05,0.0,0 STARLINK-4691,1 53588U 22104A   24125.44737705 -.00002233  00000-0 -12228-3 0  9999,2 53588  53.2180  31.1619 0001400  97.6798 262.4353 15.08828254 93136,6917.916,95.438,540.75,538.813,0.0
53588.0,STARLINK-4691,PAYLOAD,2024-05-05 02:38:05,15.08847006,0.0001282,53.2169,28.1874,109.5128,250.6003,0.001215,0.00019105,0.0,0 STARLINK-4691,1 53588U 22104A   24126.10978101  .00019105  00000-0  12150-2 0  9997,2 53588  53.2169  28.1874 0001282 109.5128 250.6003 15.08847006 93238,6917.859,95.437,540.611,538.837,0.0
53588.0,STARLINK-4691,PAYLOAD,2024-05-05 23:18:05,15.08861159,0.0001267,53.2169,24.3217,104.5576,255.5557,0.0008257,0.00012885,0.0,0 STARLINK-4691,1 53588U 22104A   24126.97089537  .00012885  00000-0  82570-3 0  9990,2 53588  53.2169  24.3217 0001267 104.5576 255.5557 15.08861159 94539,6917.816,95.436,540.557,538.804,0.0
53588.0,STARLINK-4691,PAYLOAD,2024-05-06 02:28:51,15.08866427,0.0001263,53.2171,23.7269,103.3809,256.7324,0.00093954,0.00014707,0.0,0 STARLINK-4691,1 53588U 22104A   24127.10337317  .00014707  00000-0  93954-3 0  9991,2 53588  53.2171  23.7269 0001263 103.3809 256.7324 15.08866427 93384,6917.8,95.436,540.538,538.791,0.0
53588.0,STARLINK-4691,PAYLOAD,2024-05-06 10:25:46,15.08878466,0.0001238,53.2169,22.2384,104.8137,255.2992,0.001149,0.00018065,0.0,0 STARLINK-4691,1 53588U 22104A   24127.43456575  .00018065  00000-0  11490-2 0  9990,2 53588  53.2169  22.2384 0001238 104.8137 255.2992 15.08878466 94602,6917.763,95.435,540.484,538.771,0.0
53588.0,STARLINK-4691,PAYLOAD,2024-05-06 23:08:51,15.08881041,0.0002569,53.2176,19.8612,86.9864,273.1422,0.00086636,0.00013543,0.0,0 STARLINK-4691,1 53588U 22104A   24127.96447986  .00013543  00000-0  86636-3 0  9995,2 53588  53.2176  19.8612 0002569  86.9864 273.1422 15.08881041 94689,6917.755,95.435,541.397,537.843,0.0
53588.0,STARLINK-4691,PAYLOAD,2024-05-07 02:19:37,15.08869458,0.000132,53.2181,19.2655,93.7368,266.3775,0.00053818,8.294e-05,0.0,0 STARLINK-4691,1 53588U 22104A   24128.09695765  .00008294  00000-0  53818-3 0  9993,2 53588  53.2181  19.2655 0001320  93.7368 266.3775 15.08869458 93531,6917.79,95.436,540.568,538.742,0.0
53588.0,STARLINK-4691,PAYLOAD,2024-05-07 10:16:32,15.08866872,0.0001086,53.2178,17.7772,78.5734,281.538,0.00047587,7.299e-05,0.0,0 STARLINK-4691,1 53588U 22104A   24128.42815351  .00007299  00000-0  47587-3 0  9995,2 53588  53.2178  17.7772 0001086  78.5734 281.5380 15.08866872 94750,6917.798,95.436,540.415,538.912,0.0
53588.0,STARLINK-4691,PAYLOAD,2024-05-07 21:24:15,15.08826026,0.0001285,53.2184,15.6995,74.0302,286.0832,-0.00051888,-8.533e-05,0.0,0 STARLINK-4691,1 53588U 22104A   24128.89184675 -.00008533  00000-0 -51888-3 0  9997,2 53588  53.2184  15.6995 0001285  74.0302 286.0832 15.08826026 93651,6917.923,95.438,540.677,538.899,0.0
53588.0,STARLINK-4691,PAYLOAD,2024-05-07 22:59:38,15.08826635,0.0001354,53.2181,15.4018,71.2934,288.8205,-0.00040741,-6.764e-05,0.0,0 STARLINK-4691,1 53588U 22104A   24128.95808755 -.00006764  00000-0 -40741-3 0  9996,2 53588  53.2181  15.4018 0001354  71.2934 288.8205 15.08826635 94830,6917.921,95.438,540.723,538.85,0.0
53588.0,STARLINK-4691,PAYLOAD,2024-05-08 21:15:01,15.08827667,0.000128,53.2184,11.2376,87.6542,272.4597,-0.00039961,-6.64e-05,0.0,0 STARLINK-4691,1 53588U 22104A   24129.88543886 -.00006640  00000-0 -39961-3 0  9995,2 53588  53.2184  11.2376 0001280  87.6542 272.4597 15.08827667 93803,6917.918,95.438,540.669,538.898,0.0
53588.0,STARLINK-4691,PAYLOAD,2024-05-08 22:50:25,15.0882521,0.0001271,53.2177,10.9373,87.9199,272.1939,-0.00026957,-4.574e-05,0.0,0 STARLINK-4691,1 53588U 22104A   24129.95168001 -.00004574  00000-0 -26957-3 0  9990,2 53588  53.2177  10.9373 0001271  87.9199 272.1939 15.08825210 94988,6917.926,95.438,540.67,538.911,0.0
53588.0,STARLINK-4691,PAYLOAD,2024-05-09 22:41:13,15.08835282,0.000129,53.2182,6.4802,89.2137,270.9003,0.00027256,4.052e-05,0.0,0 STARLINK-4691,1 53588U 22104A   24130.94529123  .00004052  00000-0  27256-3 0  9999,2 53588  53.2182   6.4802 0001290  89.2137 270.9003 15.08835282 95135,6917.895,95.438,540.652,538.867,0.0
53588.0,STARLINK-4691,PAYLOAD,2024-05-10 08:13:31,15.08847439,0.0001327,53.2186,4.6992,103.2832,256.8309,0.00074092,0.00011526,0.0,0 STARLINK-4691,1 53588U 22104A   24131.34273134  .00011526  00000-0  74092-3 0  9996,2 53588  53.2186   4.6992 0001327 103.2832 256.8309 15.08847439 95194,6917.858,95.437,540.641,538.805,0.0
53588.0,STARLINK-4691,PAYLOAD,2024-05-10 20:56:37,15.08844827,0.0001817,53.2196,2.326,116.7181,243.3997,0.0005162,7.938e-05,0.0,0 STARLINK-4691,1 53588U 22104A   24131.87265494  .00007938  00000-0  51620-3 0  9998,2 53588  53.2196   2.3260 0001817 116.7181 243.3997 15.08844827 95279,6917.866,95.437,540.988,538.474,0.0
53588.0,STARLINK-4691,PAYLOAD,2024-05-11 00:07:23,15.08858607,0.0001559,53.2195,1.7264,100.1791,259.9377,0.00093555,0.0001464,0.0,0 STARLINK-4691,1 53588U 22104A   24132.00513461  .00014640  00000-0  93555-3 0  9995,2 53588  53.2195   1.7264 0001559 100.1791 259.9377 15.08858607 94121,6917.824,95.436,540.767,538.61,0.0
53588.0,STARLINK-4691,PAYLOAD,2024-05-11 20:47:18,15.08782853,0.0001114,53.2173,357.8593,35.9645,324.1422,-0.0056744,-0.00089336,0.0,0 STARLINK-4691,1 53588U 22104A   24132.86618477 -.00089336  00000-0 -56744-2 0  9996,2 53588  53.2173 357.8593 0001114  35.9645 324.1422 15.08782853 94256,6918.055,95.441,540.691,539.149,0.0
53588.0,STARLINK-4691,PAYLOAD,2024-05-11 22:22:42,15.08775148,5.82e-05,53.2171,357.5623,137.9615,222.1421,-0.0015143,-0.00024263,0.0,0 STARLINK-4691,1 53588U 22104A   24132.93243426 -.00024263  00000-0 -15143-2 0  9998,2 53588  53.2171 357.5623 0000582 137.9615 222.1421 15.08775148 95439,6918.079,95.442,540.346,539.541,0.0
53588.0,STARLINK-4691,PAYLOAD,2024-05-11 23:58:05,15.08801417,7.1e-05,53.2172,357.2644,82.1191,277.9882,-0.0040303,-0.00063793,0.0,0 STARLINK-4691,1 53588U 22104A   24132.99867389 -.00063793  00000-0 -40303-2 0  9991,2 53588  53.2172 357.2644 0000710  82.1191 277.9882 15.08801417 94272,6917.998,95.44,540.355,539.372,0.0
53588.0,STARLINK-4691,PAYLOAD,2024-05-12 14:16:37,15.0874409,9.34e-05,53.2175,354.5861,86.0468,274.0631,0.00045192,6.893e-05,0.0,0 STARLINK-4691,1 53588U 22104A   24133.59488252  .00006893  00000-0  45192-3 0  9994,2 53588  53.2175 354.5861 0000934  86.0468 274.0631 15.08744090 95537,6918.174,95.444,540.685,539.392,0.0
53588.0,STARLINK-4691,PAYLOAD,2024-05-12 20:38:11,15.0875337,0.0001071,53.2172,353.3965,83.1919,276.9195,0.00064253,9.929e-05,0.0,0 STARLINK-4691,1 53588U 22104A   24133.85985769  .00009929  00000-0  64253-3 0  9990,2 53588  53.2172 353.3965 0001071  83.1919 276.9195 15.08753370 94400,6918.145,95.443,540.751,539.269,0.0
53588.0,STARLINK-4691,PAYLOAD,2024-05-12 22:13:35,15.08755436,0.000107,53.2167,353.0989,82.5521,277.5593,0.00065306,0.00010097,0.0,0 STARLINK-4691,1 53588U 22104A   24133.92610110  .00010097  00000-0  65306-3 0  9991,2 53588  53.2167 353.0989 0001070  82.5521 277.5593 15.08755436 95582,6918.139,95.443,540.744,539.264,0.0
53588.0,STARLINK-4691,PAYLOAD,2024-05-13 07:45:55,15.08769156,9.72e-05,53.2162,351.3119,125.4061,234.7022,0.0007033,0.00010901,0.0,0 STARLINK-4691,1 53588U 22104A   24134.32355682  .00010901  00000-0  70330-3 0  9993,2 53588  53.2162 351.3119 0000972 125.4061 234.7022 15.08769156 95642,6918.097,95.442,540.634,539.29,0.0
53588.0,STARLINK-4691,PAYLOAD,2024-05-13 20:29:00,15.08831692,8.33e-05,53.2169,348.9357,98.4732,261.6355,0.0016473,0.0002602,0.0,0 STARLINK-4691,1 53588U 22104A   24134.85347874  .00026020  00000-0  16473-2 0  9991,2 53588  53.2169 348.9357 0000833  98.4732 261.6355 15.08831692 94557,6917.906,95.438,540.347,539.195,0.0
53588.0,STARLINK-4691,PAYLOAD,2024-05-14 07:36:41,15.0885994,0.0001149,53.2172,346.8543,92.91,267.2023,0.0010109,0.00015846,0.0,0 STARLINK-4691,1 53588U 22104A   24135.31715158  .00015846  00000-0  10109-2 0  9991,2 53588  53.2172 346.8543 0001149  92.9100 267.2023 15.08859940 95791,6917.819,95.436,540.479,538.89,0.0
